GLOBALSTAR M067         
1 32263U 07048A   25293.71213382 -.00000087  00000+0  73475-4 0  9998
2 32263  51.9750  28.6307 0000778 214.9038 310.4154 12.40679884825068
GLOBALSTAR M070         
1 32264U 07048B   25293.97650638 -.00000069  00000+0  19179-3 0  9996
2 32264  51.9730 105.2935 0001100  92.2924  75.6585 12.62324878829557
GLOBALSTAR M066         
1 32265U 07048C   25293.68992935 -.00000099  00000+0 -41679-4 0  9999
2 32265  51.9617  25.4357 0004341 257.2367 250.2963 12.30377630830740
GLOBALSTAR M068         
1 32266U 07048D   25293.99189601 -.00000080  00000+0  13519-3 0  9992
2 32266  51.9879 278.7596 0001441  54.4481 340.6660 12.62831099833459
GLOBALSTAR M079         
1 37188U 10054A   25293.94074273 -.00000074  00000+0  16340-3 0  9992
2 37188  52.0016 116.9716 0000867 110.6322  39.7231 12.62268073692335
GLOBALSTAR M074         
1 37189U 10054B   25293.88771501 -.00000078  00000+0  14401-3 0  9994
2 37189  51.9995 116.4361 0000826  89.2287  59.6766 12.62272768692933
GLOBALSTAR M076         
1 37190U 10054C   25293.91343394 -.00000068  00000+0  20019-3 0  9996
2 37190  52.0007 116.5412 0000647 102.2677  42.6717 12.62266888692652
GLOBALSTAR M077         
1 37191U 10054D   25293.86032554 -.00000110  00000+0 -10416-3 0  9993
2 37191  52.0068  76.6121 0002004  45.4523 120.7438 12.36452514692988
